<?xml version="1.0" encoding="utf-8"?>
<gpx xmlns="http://www.topografix.com/GPX/1/1" version="1.1" creator="https://mapy.com/">
	<trk>
		<name>Leg #1: STF Kvikkjokk Fjällstation → STF Pårte Fjällstuga</name>
		<trkseg>
			<trkpt lat="66.953734" lon="17.719907">
				<ele>330.000000</ele>
			</trkpt>
			<trkpt lat="66.953734" lon="17.719907">
				<ele>330.000000</ele>
			</trkpt>
			<trkpt lat="66.953604" lon="17.719970">
				<ele>330.000000</ele>
			</trkpt>
			<trkpt lat="66.953400" lon="17.720086">
				<ele>329.000000</ele>
			</trkpt>
			<trkpt lat="66.953252" lon="17.720222">
				<ele>327.000000</ele>
			</trkpt>
			<trkpt lat="66.953340" lon="17.720222">
				<ele>328.000000</ele>
			</trkpt>
			<trkpt lat="66.953417" lon="17.720230">
				<ele>328.000000</ele>
			</trkpt>
			<trkpt lat="66.953537" lon="17.720230">
				<ele>329.000000</ele>
			</trkpt>
			<trkpt lat="66.953695" lon="17.720266">
				<ele>330.000000</ele>
			</trkpt>
			<trkpt lat="66.953889" lon="17.720365">
				<ele>331.000000</ele>
			</trkpt>
			<trkpt lat="66.954254" lon="17.720428">
				<ele>333.000000</ele>
			</trkpt>
			<trkpt lat="66.954448" lon="17.720536">
				<ele>334.000000</ele>
			</trkpt>
			<trkpt lat="66.954588" lon="17.720635">
				<ele>335.000000</ele>
			</trkpt>
			<trkpt lat="66.954676" lon="17.720608">
				<ele>335.000000</ele>
			</trkpt>
			<trkpt lat="66.954799" lon="17.720616">
				<ele>336.000000</ele>
			</trkpt>
			<trkpt lat="66.955331" lon="17.720545">
				<ele>338.000000</ele>
			</trkpt>
			<trkpt lat="66.955647" lon="17.720482">
				<ele>340.000000</ele>
			</trkpt>
			<trkpt lat="66.955942" lon="17.720346">
				<ele>341.000000</ele>
			</trkpt>
			<trkpt lat="66.956224" lon="17.720346">
				<ele>341.000000</ele>
			</trkpt>
			<trkpt lat="66.956445" lon="17.720428">
				<ele>342.000000</ele>
			</trkpt>
			<trkpt lat="66.956670" lon="17.720518">
				<ele>343.000000</ele>
			</trkpt>
			<trkpt lat="66.956909" lon="17.720788">
				<ele>343.000000</ele>
			</trkpt>
			<trkpt lat="66.957099" lon="17.721065">
				<ele>344.000000</ele>
			</trkpt>
			<trkpt lat="66.957257" lon="17.721111">
				<ele>344.000000</ele>
			</trkpt>
			<trkpt lat="66.957574" lon="17.720895">
				<ele>345.000000</ele>
			</trkpt>
			<trkpt lat="66.957806" lon="17.721075">
				<ele>346.000000</ele>
			</trkpt>
			<trkpt lat="66.958175" lon="17.721497">
				<ele>347.000000</ele>
			</trkpt>
			<trkpt lat="66.958344" lon="17.721560">
				<ele>348.000000</ele>
			</trkpt>
			<trkpt lat="66.958551" lon="17.721614">
				<ele>348.000000</ele>
			</trkpt>
			<trkpt lat="66.958787" lon="17.721623">
				<ele>349.000000</ele>
			</trkpt>
			<trkpt lat="66.958977" lon="17.721631">
				<ele>349.000000</ele>
			</trkpt>
			<trkpt lat="66.958998" lon="17.721928">
				<ele>350.000000</ele>
			</trkpt>
			<trkpt lat="66.959065" lon="17.722279">
				<ele>350.000000</ele>
			</trkpt>
			<trkpt lat="66.959363" lon="17.722782">
				<ele>353.000000</ele>
			</trkpt>
			<trkpt lat="66.959518" lon="17.722943">
				<ele>355.000000</ele>
			</trkpt>
			<trkpt lat="66.959617" lon="17.723105">
				<ele>356.000000</ele>
			</trkpt>
			<trkpt lat="66.959747" lon="17.723608">
				<ele>358.000000</ele>
			</trkpt>
			<trkpt lat="66.959894" lon="17.724004">
				<ele>359.000000</ele>
			</trkpt>
			<trkpt lat="66.959985" lon="17.724191">
				<ele>360.000000</ele>
			</trkpt>
			<trkpt lat="66.960179" lon="17.724380">
				<ele>363.000000</ele>
			</trkpt>
			<trkpt lat="66.960309" lon="17.724425">
				<ele>364.000000</ele>
			</trkpt>
			<trkpt lat="66.960401" lon="17.724515">
				<ele>365.000000</ele>
			</trkpt>
			<trkpt lat="66.960492" lon="17.724667">
				<ele>366.000000</ele>
			</trkpt>
			<trkpt lat="66.960612" lon="17.724811">
				<ele>368.000000</ele>
			</trkpt>
			<trkpt lat="66.960851" lon="17.725099">
				<ele>370.000000</ele>
			</trkpt>
			<trkpt lat="66.960952" lon="17.725296">
				<ele>372.000000</ele>
			</trkpt>
			<trkpt lat="66.961026" lon="17.725396">
				<ele>372.000000</ele>
			</trkpt>
			<trkpt lat="66.961065" lon="17.725467">
				<ele>373.000000</ele>
			</trkpt>
			<trkpt lat="66.961170" lon="17.725826">
				<ele>375.000000</ele>
			</trkpt>
			<trkpt lat="66.961269" lon="17.726239">
				<ele>376.000000</ele>
			</trkpt>
			<trkpt lat="66.961304" lon="17.726365">
				<ele>377.000000</ele>
			</trkpt>
			<trkpt lat="66.961339" lon="17.726491">
				<ele>378.000000</ele>
			</trkpt>
			<trkpt lat="66.961466" lon="17.726788">
				<ele>379.000000</ele>
			</trkpt>
			<trkpt lat="66.961554" lon="17.727031">
				<ele>381.000000</ele>
			</trkpt>
			<trkpt lat="66.961663" lon="17.727354">
				<ele>383.000000</ele>
			</trkpt>
			<trkpt lat="66.961789" lon="17.727830">
				<ele>385.000000</ele>
			</trkpt>
			<trkpt lat="66.961856" lon="17.728046">
				<ele>387.000000</ele>
			</trkpt>
			<trkpt lat="66.962011" lon="17.728270">
				<ele>389.000000</ele>
			</trkpt>
			<trkpt lat="66.962408" lon="17.728872">
				<ele>394.000000</ele>
			</trkpt>
			<trkpt lat="66.962675" lon="17.729214">
				<ele>397.000000</ele>
			</trkpt>
			<trkpt lat="66.962840" lon="17.729627">
				<ele>399.000000</ele>
			</trkpt>
			<trkpt lat="66.963006" lon="17.729896">
				<ele>401.000000</ele>
			</trkpt>
			<trkpt lat="66.963202" lon="17.730174">
				<ele>403.000000</ele>
			</trkpt>
			<trkpt lat="66.963318" lon="17.730489">
				<ele>405.000000</ele>
			</trkpt>
			<trkpt lat="66.963448" lon="17.730912">
				<ele>407.000000</ele>
			</trkpt>
			<trkpt lat="66.963543" lon="17.731315">
				<ele>409.000000</ele>
			</trkpt>
			<trkpt lat="66.963663" lon="17.731809">
				<ele>411.000000</ele>
			</trkpt>
			<trkpt lat="66.963716" lon="17.732088">
				<ele>412.000000</ele>
			</trkpt>
			<trkpt lat="66.963694" lon="17.732457">
				<ele>414.000000</ele>
			</trkpt>
			<trkpt lat="66.963684" lon="17.733112">
				<ele>416.000000</ele>
			</trkpt>
			<trkpt lat="66.963814" lon="17.734046">
				<ele>420.000000</ele>
			</trkpt>
			<trkpt lat="66.963867" lon="17.734415">
				<ele>421.000000</ele>
			</trkpt>
			<trkpt lat="66.964039" lon="17.734873">
				<ele>423.000000</ele>
			</trkpt>
			<trkpt lat="66.964229" lon="17.735447">
				<ele>425.000000</ele>
			</trkpt>
			<trkpt lat="66.964359" lon="17.735583">
				<ele>426.000000</ele>
			</trkpt>
			<trkpt lat="66.964500" lon="17.735906">
				<ele>427.000000</ele>
			</trkpt>
			<trkpt lat="66.964559" lon="17.736202">
				<ele>428.000000</ele>
			</trkpt>
			<trkpt lat="66.964707" lon="17.736481">
				<ele>429.000000</ele>
			</trkpt>
			<trkpt lat="66.964830" lon="17.736831">
				<ele>431.000000</ele>
			</trkpt>
			<trkpt lat="66.964911" lon="17.737101">
				<ele>433.000000</ele>
			</trkpt>
			<trkpt lat="66.964942" lon="17.737271">
				<ele>433.000000</ele>
			</trkpt>
			<trkpt lat="66.964992" lon="17.737657">
				<ele>435.000000</ele>
			</trkpt>
			<trkpt lat="66.965034" lon="17.737900">
				<ele>437.000000</ele>
			</trkpt>
			<trkpt lat="66.965111" lon="17.738044">
				<ele>438.000000</ele>
			</trkpt>
			<trkpt lat="66.965284" lon="17.738116">
				<ele>440.000000</ele>
			</trkpt>
			<trkpt lat="66.965354" lon="17.738250">
				<ele>441.000000</ele>
			</trkpt>
			<trkpt lat="66.965420" lon="17.738403">
				<ele>442.000000</ele>
			</trkpt>
			<trkpt lat="66.965466" lon="17.738592">
				<ele>443.000000</ele>
			</trkpt>
			<trkpt lat="66.965579" lon="17.738889">
				<ele>445.000000</ele>
			</trkpt>
			<trkpt lat="66.965723" lon="17.739193">
				<ele>448.000000</ele>
			</trkpt>
			<trkpt lat="66.965814" lon="17.739311">
				<ele>449.000000</ele>
			</trkpt>
			<trkpt lat="66.965983" lon="17.739589">
				<ele>451.000000</ele>
			</trkpt>
			<trkpt lat="66.966124" lon="17.739724">
				<ele>453.000000</ele>
			</trkpt>
			<trkpt lat="66.966264" lon="17.739912">
				<ele>455.000000</ele>
			</trkpt>
			<trkpt lat="66.966345" lon="17.740038">
				<ele>456.000000</ele>
			</trkpt>
			<trkpt lat="66.966430" lon="17.740074">
				<ele>457.000000</ele>
			</trkpt>
			<trkpt lat="66.966513" lon="17.740137">
				<ele>458.000000</ele>
			</trkpt>
			<trkpt lat="66.966580" lon="17.740290">
				<ele>459.000000</ele>
			</trkpt>
			<trkpt lat="66.966602" lon="17.740460">
				<ele>459.000000</ele>
			</trkpt>
			<trkpt lat="66.966647" lon="17.740649">
				<ele>460.000000</ele>
			</trkpt>
			<trkpt lat="66.966739" lon="17.740847">
				<ele>461.000000</ele>
			</trkpt>
			<trkpt lat="66.966861" lon="17.741036">
				<ele>463.000000</ele>
			</trkpt>
			<trkpt lat="66.967006" lon="17.741296">
				<ele>464.000000</ele>
			</trkpt>
			<trkpt lat="66.967223" lon="17.741789">
				<ele>467.000000</ele>
			</trkpt>
			<trkpt lat="66.967336" lon="17.742168">
				<ele>469.000000</ele>
			</trkpt>
			<trkpt lat="66.967526" lon="17.742554">
				<ele>471.000000</ele>
			</trkpt>
			<trkpt lat="66.967593" lon="17.742904">
				<ele>473.000000</ele>
			</trkpt>
			<trkpt lat="66.967670" lon="17.743210">
				<ele>474.000000</ele>
			</trkpt>
			<trkpt lat="66.967800" lon="17.743380">
				<ele>476.000000</ele>
			</trkpt>
			<trkpt lat="66.967916" lon="17.743443">
				<ele>477.000000</ele>
			</trkpt>
			<trkpt lat="66.968208" lon="17.743613">
				<ele>480.000000</ele>
			</trkpt>
			<trkpt lat="66.968345" lon="17.743865">
				<ele>481.000000</ele>
			</trkpt>
			<trkpt lat="66.968538" lon="17.744368">
				<ele>482.000000</ele>
			</trkpt>
			<trkpt lat="66.968791" lon="17.744701">
				<ele>483.000000</ele>
			</trkpt>
			<trkpt lat="66.969002" lon="17.745068">
				<ele>484.000000</ele>
			</trkpt>
			<trkpt lat="66.969751" lon="17.745724">
				<ele>486.000000</ele>
			</trkpt>
			<trkpt lat="66.970004" lon="17.746066">
				<ele>487.000000</ele>
			</trkpt>
			<trkpt lat="66.970154" lon="17.746426">
				<ele>488.000000</ele>
			</trkpt>
			<trkpt lat="66.970270" lon="17.746982">
				<ele>489.000000</ele>
			</trkpt>
			<trkpt lat="66.970394" lon="17.747323">
				<ele>490.000000</ele>
			</trkpt>
			<trkpt lat="66.970604" lon="17.747566">
				<ele>491.000000</ele>
			</trkpt>
			<trkpt lat="66.970717" lon="17.747737">
				<ele>492.000000</ele>
			</trkpt>
			<trkpt lat="66.970893" lon="17.748087">
				<ele>494.000000</ele>
			</trkpt>
			<trkpt lat="66.971029" lon="17.748384">
				<ele>496.000000</ele>
			</trkpt>
			<trkpt lat="66.971156" lon="17.748877">
				<ele>497.000000</ele>
			</trkpt>
			<trkpt lat="66.971314" lon="17.749200">
				<ele>499.000000</ele>
			</trkpt>
			<trkpt lat="66.971543" lon="17.749650">
				<ele>501.000000</ele>
			</trkpt>
			<trkpt lat="66.971982" lon="17.750036">
				<ele>504.000000</ele>
			</trkpt>
			<trkpt lat="66.972151" lon="17.750342">
				<ele>505.000000</ele>
			</trkpt>
			<trkpt lat="66.972284" lon="17.750710">
				<ele>506.000000</ele>
			</trkpt>
			<trkpt lat="66.972502" lon="17.751473">
				<ele>508.000000</ele>
			</trkpt>
			<trkpt lat="66.972671" lon="17.751877">
				<ele>510.000000</ele>
			</trkpt>
			<trkpt lat="66.972917" lon="17.752139">
				<ele>510.000000</ele>
			</trkpt>
			<trkpt lat="66.973564" lon="17.752498">
				<ele>511.000000</ele>
			</trkpt>
			<trkpt lat="66.973876" lon="17.752875">
				<ele>511.000000</ele>
			</trkpt>
			<trkpt lat="66.974048" lon="17.753342">
				<ele>512.000000</ele>
			</trkpt>
			<trkpt lat="66.974217" lon="17.753989">
				<ele>512.000000</ele>
			</trkpt>
			<trkpt lat="66.974417" lon="17.754546">
				<ele>512.000000</ele>
			</trkpt>
			<trkpt lat="66.974624" lon="17.755022">
				<ele>513.000000</ele>
			</trkpt>
			<trkpt lat="66.974776" lon="17.755246">
				<ele>513.000000</ele>
			</trkpt>
			<trkpt lat="66.974905" lon="17.755265">
				<ele>513.000000</ele>
			</trkpt>
			<trkpt lat="66.975151" lon="17.755255">
				<ele>513.000000</ele>
			</trkpt>
			<trkpt lat="66.975215" lon="17.755273">
				<ele>513.000000</ele>
			</trkpt>
			<trkpt lat="66.975275" lon="17.755292">
				<ele>514.000000</ele>
			</trkpt>
			<trkpt lat="66.975465" lon="17.755211">
				<ele>514.000000</ele>
			</trkpt>
			<trkpt lat="66.975640" lon="17.755229">
				<ele>514.000000</ele>
			</trkpt>
			<trkpt lat="66.975784" lon="17.755328">
				<ele>514.000000</ele>
			</trkpt>
			<trkpt lat="66.975910" lon="17.755399">
				<ele>514.000000</ele>
			</trkpt>
			<trkpt lat="66.976047" lon="17.755381">
				<ele>514.000000</ele>
			</trkpt>
			<trkpt lat="66.976191" lon="17.755444">
				<ele>515.000000</ele>
			</trkpt>
			<trkpt lat="66.976392" lon="17.755714">
				<ele>515.000000</ele>
			</trkpt>
			<trkpt lat="66.976539" lon="17.755965">
				<ele>515.000000</ele>
			</trkpt>
			<trkpt lat="66.976602" lon="17.756315">
				<ele>515.000000</ele>
			</trkpt>
			<trkpt lat="66.976684" lon="17.756701">
				<ele>515.000000</ele>
			</trkpt>
			<trkpt lat="66.976796" lon="17.756837">
				<ele>516.000000</ele>
			</trkpt>
			<trkpt lat="66.976999" lon="17.757016">
				<ele>516.000000</ele>
			</trkpt>
			<trkpt lat="66.977182" lon="17.757339">
				<ele>516.000000</ele>
			</trkpt>
			<trkpt lat="66.977284" lon="17.757771">
				<ele>516.000000</ele>
			</trkpt>
			<trkpt lat="66.977418" lon="17.758095">
				<ele>517.000000</ele>
			</trkpt>
			<trkpt lat="66.977713" lon="17.758471">
				<ele>517.000000</ele>
			</trkpt>
			<trkpt lat="66.977832" lon="17.758903">
				<ele>517.000000</ele>
			</trkpt>
			<trkpt lat="66.978454" lon="17.759559">
				<ele>518.000000</ele>
			</trkpt>
			<trkpt lat="66.979023" lon="17.760565">
				<ele>519.000000</ele>
			</trkpt>
			<trkpt lat="66.979427" lon="17.761391">
				<ele>519.000000</ele>
			</trkpt>
			<trkpt lat="66.979543" lon="17.761705">
				<ele>520.000000</ele>
			</trkpt>
			<trkpt lat="66.979828" lon="17.762020">
				<ele>520.000000</ele>
			</trkpt>
			<trkpt lat="66.980056" lon="17.762479">
				<ele>520.000000</ele>
			</trkpt>
			<trkpt lat="66.980316" lon="17.762630">
				<ele>520.000000</ele>
			</trkpt>
			<trkpt lat="66.981008" lon="17.763619">
				<ele>520.000000</ele>
			</trkpt>
			<trkpt lat="66.981342" lon="17.763879">
				<ele>520.000000</ele>
			</trkpt>
			<trkpt lat="66.981444" lon="17.763978">
				<ele>520.000000</ele>
			</trkpt>
			<trkpt lat="66.981658" lon="17.763951">
				<ele>520.000000</ele>
			</trkpt>
			<trkpt lat="66.981819" lon="17.763897">
				<ele>520.000000</ele>
			</trkpt>
			<trkpt lat="66.982006" lon="17.763789">
				<ele>520.000000</ele>
			</trkpt>
			<trkpt lat="66.982248" lon="17.763897">
				<ele>520.000000</ele>
			</trkpt>
			<trkpt lat="66.983017" lon="17.764653">
				<ele>517.000000</ele>
			</trkpt>
			<trkpt lat="66.983319" lon="17.765083">
				<ele>516.000000</ele>
			</trkpt>
			<trkpt lat="66.983519" lon="17.765253">
				<ele>515.000000</ele>
			</trkpt>
			<trkpt lat="66.984007" lon="17.765227">
				<ele>513.000000</ele>
			</trkpt>
			<trkpt lat="66.984299" lon="17.765316">
				<ele>512.000000</ele>
			</trkpt>
			<trkpt lat="66.984478" lon="17.765523">
				<ele>512.000000</ele>
			</trkpt>
			<trkpt lat="66.984612" lon="17.765703">
				<ele>511.000000</ele>
			</trkpt>
			<trkpt lat="66.984878" lon="17.765784">
				<ele>510.000000</ele>
			</trkpt>
			<trkpt lat="66.985093" lon="17.766045">
				<ele>510.000000</ele>
			</trkpt>
			<trkpt lat="66.985251" lon="17.766475">
				<ele>510.000000</ele>
			</trkpt>
			<trkpt lat="66.985360" lon="17.767123">
				<ele>510.000000</ele>
			</trkpt>
			<trkpt lat="66.985402" lon="17.767913">
				<ele>510.000000</ele>
			</trkpt>
			<trkpt lat="66.985528" lon="17.768613">
				<ele>510.000000</ele>
			</trkpt>
			<trkpt lat="66.985680" lon="17.769413">
				<ele>510.000000</ele>
			</trkpt>
			<trkpt lat="66.985820" lon="17.769890">
				<ele>510.000000</ele>
			</trkpt>
			<trkpt lat="66.986132" lon="17.770213">
				<ele>510.000000</ele>
			</trkpt>
			<trkpt lat="66.986417" lon="17.770383">
				<ele>510.000000</ele>
			</trkpt>
			<trkpt lat="66.986821" lon="17.770815">
				<ele>510.000000</ele>
			</trkpt>
			<trkpt lat="66.987021" lon="17.771119">
				<ele>510.000000</ele>
			</trkpt>
			<trkpt lat="66.987140" lon="17.771721">
				<ele>510.000000</ele>
			</trkpt>
			<trkpt lat="66.987218" lon="17.772180">
				<ele>510.000000</ele>
			</trkpt>
			<trkpt lat="66.987270" lon="17.772440">
				<ele>510.000000</ele>
			</trkpt>
			<trkpt lat="66.987264" lon="17.772836">
				<ele>510.000000</ele>
			</trkpt>
			<trkpt lat="66.987309" lon="17.773186">
				<ele>510.000000</ele>
			</trkpt>
			<trkpt lat="66.987397" lon="17.773465">
				<ele>510.000000</ele>
			</trkpt>
			<trkpt lat="66.987411" lon="17.773653">
				<ele>510.000000</ele>
			</trkpt>
			<trkpt lat="66.987421" lon="17.773832">
				<ele>510.000000</ele>
			</trkpt>
			<trkpt lat="66.987555" lon="17.774300">
				<ele>510.000000</ele>
			</trkpt>
			<trkpt lat="66.987724" lon="17.774578">
				<ele>510.000000</ele>
			</trkpt>
			<trkpt lat="66.987945" lon="17.774803">
				<ele>510.000000</ele>
			</trkpt>
			<trkpt lat="66.988159" lon="17.774884">
				<ele>510.000000</ele>
			</trkpt>
			<trkpt lat="66.988475" lon="17.775207">
				<ele>510.000000</ele>
			</trkpt>
			<trkpt lat="66.988591" lon="17.775467">
				<ele>510.000000</ele>
			</trkpt>
			<trkpt lat="66.988840" lon="17.776177">
				<ele>510.000000</ele>
			</trkpt>
			<trkpt lat="66.989188" lon="17.776582">
				<ele>510.000000</ele>
			</trkpt>
			<trkpt lat="66.989578" lon="17.776878">
				<ele>510.000000</ele>
			</trkpt>
			<trkpt lat="66.989760" lon="17.777184">
				<ele>510.000000</ele>
			</trkpt>
			<trkpt lat="66.991456" lon="17.778423">
				<ele>510.000000</ele>
			</trkpt>
			<trkpt lat="66.991972" lon="17.778729">
				<ele>510.000000</ele>
			</trkpt>
			<trkpt lat="66.992218" lon="17.779069">
				<ele>510.000000</ele>
			</trkpt>
			<trkpt lat="66.992418" lon="17.779411">
				<ele>510.000000</ele>
			</trkpt>
			<trkpt lat="66.992710" lon="17.779582">
				<ele>510.000000</ele>
			</trkpt>
			<trkpt lat="66.992966" lon="17.779672">
				<ele>510.000000</ele>
			</trkpt>
			<trkpt lat="66.993240" lon="17.779914">
				<ele>510.000000</ele>
			</trkpt>
			<trkpt lat="66.993510" lon="17.780291">
				<ele>510.000000</ele>
			</trkpt>
			<trkpt lat="66.993700" lon="17.780803">
				<ele>510.000000</ele>
			</trkpt>
			<trkpt lat="66.993840" lon="17.781432">
				<ele>510.000000</ele>
			</trkpt>
			<trkpt lat="66.993966" lon="17.782358">
				<ele>510.000000</ele>
			</trkpt>
			<trkpt lat="66.994142" lon="17.783103">
				<ele>510.000000</ele>
			</trkpt>
			<trkpt lat="66.994353" lon="17.783580">
				<ele>510.000000</ele>
			</trkpt>
			<trkpt lat="66.994528" lon="17.784092">
				<ele>510.000000</ele>
			</trkpt>
			<trkpt lat="66.994746" lon="17.784451">
				<ele>510.000000</ele>
			</trkpt>
			<trkpt lat="66.995065" lon="17.784675">
				<ele>510.000000</ele>
			</trkpt>
			<trkpt lat="66.995308" lon="17.785035">
				<ele>510.000000</ele>
			</trkpt>
			<trkpt lat="66.995525" lon="17.785547">
				<ele>510.000000</ele>
			</trkpt>
			<trkpt lat="66.995739" lon="17.785816">
				<ele>510.000000</ele>
			</trkpt>
			<trkpt lat="66.995788" lon="17.785870">
				<ele>510.000000</ele>
			</trkpt>
			<trkpt lat="66.995855" lon="17.786086">
				<ele>510.000000</ele>
			</trkpt>
			<trkpt lat="66.995918" lon="17.786535">
				<ele>510.000000</ele>
			</trkpt>
			<trkpt lat="66.995975" lon="17.787136">
				<ele>510.000000</ele>
			</trkpt>
			<trkpt lat="66.996108" lon="17.787675">
				<ele>510.000000</ele>
			</trkpt>
			<trkpt lat="66.996266" lon="17.788027">
				<ele>510.000000</ele>
			</trkpt>
			<trkpt lat="66.996333" lon="17.788314">
				<ele>510.000000</ele>
			</trkpt>
			<trkpt lat="66.996435" lon="17.788574">
				<ele>510.000000</ele>
			</trkpt>
			<trkpt lat="66.996771" lon="17.788861">
				<ele>510.000000</ele>
			</trkpt>
			<trkpt lat="66.997193" lon="17.789041">
				<ele>510.000000</ele>
			</trkpt>
			<trkpt lat="66.997663" lon="17.789589">
				<ele>510.000000</ele>
			</trkpt>
			<trkpt lat="66.998042" lon="17.790164">
				<ele>510.000000</ele>
			</trkpt>
			<trkpt lat="66.998137" lon="17.790235">
				<ele>510.000000</ele>
			</trkpt>
			<trkpt lat="66.998204" lon="17.790694">
				<ele>510.000000</ele>
			</trkpt>
			<trkpt lat="66.998288" lon="17.790604">
				<ele>510.000000</ele>
			</trkpt>
			<trkpt lat="66.998340" lon="17.790559">
				<ele>510.000000</ele>
			</trkpt>
			<trkpt lat="66.998464" lon="17.790658">
				<ele>510.000000</ele>
			</trkpt>
			<trkpt lat="66.998604" lon="17.790901">
				<ele>510.000000</ele>
			</trkpt>
			<trkpt lat="66.998797" lon="17.791547">
				<ele>510.000000</ele>
			</trkpt>
			<trkpt lat="66.998948" lon="17.791906">
				<ele>512.000000</ele>
			</trkpt>
			<trkpt lat="66.999120" lon="17.792096">
				<ele>512.000000</ele>
			</trkpt>
			<trkpt lat="66.999240" lon="17.792248">
				<ele>513.000000</ele>
			</trkpt>
			<trkpt lat="66.999436" lon="17.792392">
				<ele>514.000000</ele>
			</trkpt>
			<trkpt lat="66.999555" lon="17.792464">
				<ele>515.000000</ele>
			</trkpt>
			<trkpt lat="66.999633" lon="17.792572">
				<ele>515.000000</ele>
			</trkpt>
			<trkpt lat="66.999808" lon="17.792535">
				<ele>516.000000</ele>
			</trkpt>
			<trkpt lat="67.000043" lon="17.792482">
				<ele>517.000000</ele>
			</trkpt>
			<trkpt lat="67.000156" lon="17.792635">
				<ele>518.000000</ele>
			</trkpt>
			<trkpt lat="67.000239" lon="17.793002">
				<ele>519.000000</ele>
			</trkpt>
			<trkpt lat="67.000394" lon="17.793075">
				<ele>520.000000</ele>
			</trkpt>
			<trkpt lat="67.000545" lon="17.792805">
				<ele>520.000000</ele>
			</trkpt>
			<trkpt lat="67.000759" lon="17.792545">
				<ele>522.000000</ele>
			</trkpt>
			<trkpt lat="67.000864" lon="17.792482">
				<ele>522.000000</ele>
			</trkpt>
			<trkpt lat="67.000959" lon="17.792526">
				<ele>523.000000</ele>
			</trkpt>
			<trkpt lat="67.001282" lon="17.792841">
				<ele>524.000000</ele>
			</trkpt>
			<trkpt lat="67.001774" lon="17.793245">
				<ele>527.000000</ele>
			</trkpt>
			<trkpt lat="67.001949" lon="17.793344">
				<ele>528.000000</ele>
			</trkpt>
			<trkpt lat="67.002041" lon="17.793308">
				<ele>528.000000</ele>
			</trkpt>
			<trkpt lat="67.002311" lon="17.793497">
				<ele>530.000000</ele>
			</trkpt>
			<trkpt lat="67.002496" lon="17.794243">
				<ele>531.000000</ele>
			</trkpt>
			<trkpt lat="67.002739" lon="17.797629">
				<ele>535.000000</ele>
			</trkpt>
			<trkpt lat="67.002837" lon="17.799075">
				<ele>537.000000</ele>
			</trkpt>
			<trkpt lat="67.003307" lon="17.801285">
				<ele>541.000000</ele>
			</trkpt>
			<trkpt lat="67.003928" lon="17.803082">
				<ele>543.000000</ele>
			</trkpt>
			<trkpt lat="67.004111" lon="17.805238">
				<ele>546.000000</ele>
			</trkpt>
			<trkpt lat="67.004595" lon="17.806854">
				<ele>548.000000</ele>
			</trkpt>
			<trkpt lat="67.005438" lon="17.808625">
				<ele>552.000000</ele>
			</trkpt>
			<trkpt lat="67.005578" lon="17.812793">
				<ele>559.000000</ele>
			</trkpt>
			<trkpt lat="67.006020" lon="17.815146">
				<ele>564.000000</ele>
			</trkpt>
			<trkpt lat="67.006339" lon="17.818146">
				<ele>570.000000</ele>
			</trkpt>
			<trkpt lat="67.007009" lon="17.819827">
				<ele>572.000000</ele>
			</trkpt>
			<trkpt lat="67.007662" lon="17.819781">
				<ele>573.000000</ele>
			</trkpt>
			<trkpt lat="67.008350" lon="17.821802">
				<ele>574.000000</ele>
			</trkpt>
			<trkpt lat="67.008603" lon="17.824156">
				<ele>576.000000</ele>
			</trkpt>
			<trkpt lat="67.009701" lon="17.826806">
				<ele>578.000000</ele>
			</trkpt>
			<trkpt lat="67.010781" lon="17.827418">
				<ele>579.000000</ele>
			</trkpt>
			<trkpt lat="67.011192" lon="17.828899">
				<ele>580.000000</ele>
			</trkpt>
			<trkpt lat="67.011823" lon="17.830165">
				<ele>580.000000</ele>
			</trkpt>
			<trkpt lat="67.012406" lon="17.831217">
				<ele>580.000000</ele>
			</trkpt>
			<trkpt lat="67.012700" lon="17.831666">
				<ele>580.000000</ele>
			</trkpt>
			<trkpt lat="67.012942" lon="17.832268">
				<ele>580.000000</ele>
			</trkpt>
			<trkpt lat="67.013128" lon="17.832825">
				<ele>580.000000</ele>
			</trkpt>
			<trkpt lat="67.013914" lon="17.834855">
				<ele>580.000000</ele>
			</trkpt>
			<trkpt lat="67.014430" lon="17.836005">
				<ele>580.000000</ele>
			</trkpt>
			<trkpt lat="67.014728" lon="17.836320">
				<ele>580.000000</ele>
			</trkpt>
			<trkpt lat="67.015026" lon="17.836643">
				<ele>579.000000</ele>
			</trkpt>
			<trkpt lat="67.015356" lon="17.836624">
				<ele>579.000000</ele>
			</trkpt>
			<trkpt lat="67.015643" lon="17.837074">
				<ele>578.000000</ele>
			</trkpt>
			<trkpt lat="67.016110" lon="17.838350">
				<ele>576.000000</ele>
			</trkpt>
			<trkpt lat="67.017033" lon="17.840505">
				<ele>572.000000</ele>
			</trkpt>
			<trkpt lat="67.017517" lon="17.841386">
				<ele>571.000000</ele>
			</trkpt>
			<trkpt lat="67.018025" lon="17.842490">
				<ele>565.000000</ele>
			</trkpt>
			<trkpt lat="67.018629" lon="17.843003">
				<ele>559.000000</ele>
			</trkpt>
			<trkpt lat="67.018857" lon="17.843847">
				<ele>556.000000</ele>
			</trkpt>
			<trkpt lat="67.019126" lon="17.844071">
				<ele>553.000000</ele>
			</trkpt>
			<trkpt lat="67.019593" lon="17.845222">
				<ele>547.000000</ele>
			</trkpt>
			<trkpt lat="67.019901" lon="17.846425">
				<ele>542.000000</ele>
			</trkpt>
			<trkpt lat="67.020624" lon="17.846794">
				<ele>538.000000</ele>
			</trkpt>
			<trkpt lat="67.021248" lon="17.847440">
				<ele>536.000000</ele>
			</trkpt>
			<trkpt lat="67.021816" lon="17.848662">
				<ele>533.000000</ele>
			</trkpt>
			<trkpt lat="67.023001" lon="17.850782">
				<ele>530.000000</ele>
			</trkpt>
			<trkpt lat="67.023209" lon="17.852184">
				<ele>530.000000</ele>
			</trkpt>
			<trkpt lat="67.023685" lon="17.854671">
				<ele>530.000000</ele>
			</trkpt>
			<trkpt lat="67.023910" lon="17.855723">
				<ele>530.000000</ele>
			</trkpt>
			<trkpt lat="67.024839" lon="17.856874">
				<ele>530.000000</ele>
			</trkpt>
			<trkpt lat="67.025277" lon="17.858103">
				<ele>530.000000</ele>
			</trkpt>
			<trkpt lat="67.025614" lon="17.858355">
				<ele>530.000000</ele>
			</trkpt>
			<trkpt lat="67.025912" lon="17.858508">
				<ele>530.000000</ele>
			</trkpt>
			<trkpt lat="67.026207" lon="17.859002">
				<ele>529.000000</ele>
			</trkpt>
			<trkpt lat="67.027182" lon="17.860061">
				<ele>528.000000</ele>
			</trkpt>
			<trkpt lat="67.027662" lon="17.861589">
				<ele>528.000000</ele>
			</trkpt>
			<trkpt lat="67.027872" lon="17.862740">
				<ele>527.000000</ele>
			</trkpt>
			<trkpt lat="67.028054" lon="17.863583">
				<ele>527.000000</ele>
			</trkpt>
			<trkpt lat="67.028387" lon="17.864374">
				<ele>526.000000</ele>
			</trkpt>
			<trkpt lat="67.028395" lon="17.864455">
				<ele>526.000000</ele>
			</trkpt>
			<trkpt lat="67.028482" lon="17.865335">
				<ele>526.000000</ele>
			</trkpt>
			<trkpt lat="67.028566" lon="17.866206">
				<ele>526.000000</ele>
			</trkpt>
			<trkpt lat="67.028587" lon="17.866403">
				<ele>526.000000</ele>
			</trkpt>
			<trkpt lat="67.028720" lon="17.867572">
				<ele>525.000000</ele>
			</trkpt>
			<trkpt lat="67.029302" lon="17.868596">
				<ele>525.000000</ele>
			</trkpt>
			<trkpt lat="67.029512" lon="17.869198">
				<ele>524.000000</ele>
			</trkpt>
			<trkpt lat="67.029551" lon="17.869971">
				<ele>524.000000</ele>
			</trkpt>
			<trkpt lat="67.029653" lon="17.870151">
				<ele>524.000000</ele>
			</trkpt>
			<trkpt lat="67.029730" lon="17.870627">
				<ele>524.000000</ele>
			</trkpt>
			<trkpt lat="67.029811" lon="17.871300">
				<ele>524.000000</ele>
			</trkpt>
			<trkpt lat="67.029814" lon="17.875424">
				<ele>522.000000</ele>
			</trkpt>
			<trkpt lat="67.029909" lon="17.876869">
				<ele>522.000000</ele>
			</trkpt>
			<trkpt lat="67.029965" lon="17.878190">
				<ele>521.000000</ele>
			</trkpt>
			<trkpt lat="67.030302" lon="17.879879">
				<ele>521.000000</ele>
			</trkpt>
			<trkpt lat="67.030424" lon="17.880785">
				<ele>520.000000</ele>
			</trkpt>
			<trkpt lat="67.030452" lon="17.881856">
				<ele>520.000000</ele>
			</trkpt>
			<trkpt lat="67.030519" lon="17.882565">
				<ele>520.000000</ele>
			</trkpt>
			<trkpt lat="67.030484" lon="17.883814">
				<ele>520.000000</ele>
			</trkpt>
			<trkpt lat="67.030371" lon="17.885718">
				<ele>518.000000</ele>
			</trkpt>
			<trkpt lat="67.030463" lon="17.886401">
				<ele>516.000000</ele>
			</trkpt>
			<trkpt lat="67.030550" lon="17.887074">
				<ele>515.000000</ele>
			</trkpt>
			<trkpt lat="67.030684" lon="17.889122">
				<ele>511.000000</ele>
			</trkpt>
			<trkpt lat="67.030943" lon="17.890047">
				<ele>510.000000</ele>
			</trkpt>
			<trkpt lat="67.031076" lon="17.891710">
				<ele>510.000000</ele>
			</trkpt>
			<trkpt lat="67.031016" lon="17.892662">
				<ele>510.000000</ele>
			</trkpt>
			<trkpt lat="67.030810" lon="17.895383">
				<ele>510.000000</ele>
			</trkpt>
			<trkpt lat="67.030613" lon="17.896651">
				<ele>510.000000</ele>
			</trkpt>
			<trkpt lat="67.030947" lon="17.897557">
				<ele>510.000000</ele>
			</trkpt>
			<trkpt lat="67.031069" lon="17.897827">
				<ele>510.000000</ele>
			</trkpt>
			<trkpt lat="67.031139" lon="17.898007">
				<ele>510.000000</ele>
			</trkpt>
			<trkpt lat="67.031244" lon="17.898259">
				<ele>510.000000</ele>
			</trkpt>
			<trkpt lat="67.031553" lon="17.898618">
				<ele>510.000000</ele>
			</trkpt>
			<trkpt lat="67.032233" lon="17.899175">
				<ele>510.000000</ele>
			</trkpt>
			<trkpt lat="67.032815" lon="17.900001">
				<ele>511.000000</ele>
			</trkpt>
			<trkpt lat="67.034066" lon="17.901375">
				<ele>520.000000</ele>
			</trkpt>
			<trkpt lat="67.034466" lon="17.902247">
				<ele>520.000000</ele>
			</trkpt>
			<trkpt lat="67.034662" lon="17.902966">
				<ele>520.000000</ele>
			</trkpt>
			<trkpt lat="67.034974" lon="17.906442">
				<ele>520.000000</ele>
			</trkpt>
			<trkpt lat="67.035703" lon="17.910601">
				<ele>520.000000</ele>
			</trkpt>
			<trkpt lat="67.036572" lon="17.918857">
				<ele>520.000000</ele>
			</trkpt>
			<trkpt lat="67.036940" lon="17.921776">
				<ele>520.000000</ele>
			</trkpt>
			<trkpt lat="67.037287" lon="17.923304">
				<ele>520.000000</ele>
			</trkpt>
			<trkpt lat="67.037749" lon="17.924534">
				<ele>520.000000</ele>
			</trkpt>
			<trkpt lat="67.038398" lon="17.926285">
				<ele>520.000000</ele>
			</trkpt>
			<trkpt lat="67.038647" lon="17.927220">
				<ele>520.000000</ele>
			</trkpt>
			<trkpt lat="67.038892" lon="17.928145">
				<ele>520.000000</ele>
			</trkpt>
			<trkpt lat="67.039439" lon="17.930076">
				<ele>520.000000</ele>
			</trkpt>
			<trkpt lat="67.039498" lon="17.930679">
				<ele>520.000000</ele>
			</trkpt>
			<trkpt lat="67.040059" lon="17.933212">
				<ele>520.000000</ele>
			</trkpt>
			<trkpt lat="67.040732" lon="17.934298">
				<ele>520.000000</ele>
			</trkpt>
			<trkpt lat="67.040935" lon="17.934990">
				<ele>520.000000</ele>
			</trkpt>
			<trkpt lat="67.041198" lon="17.935071">
				<ele>520.000000</ele>
			</trkpt>
			<trkpt lat="67.042757" lon="17.935520">
				<ele>515.000000</ele>
			</trkpt>
			<trkpt lat="67.043300" lon="17.936814">
				<ele>511.000000</ele>
			</trkpt>
			<trkpt lat="67.043640" lon="17.937560">
				<ele>509.000000</ele>
			</trkpt>
			<trkpt lat="67.043763" lon="17.938332">
				<ele>507.000000</ele>
			</trkpt>
			<trkpt lat="67.043815" lon="17.940632">
				<ele>501.000000</ele>
			</trkpt>
			<trkpt lat="67.043798" lon="17.942051">
				<ele>500.000000</ele>
			</trkpt>
			<trkpt lat="67.043440" lon="17.942967">
				<ele>500.000000</ele>
			</trkpt>
			<trkpt lat="67.043346" lon="17.942967">
				<ele>500.000000</ele>
			</trkpt>
			<trkpt lat="67.043062" lon="17.943030">
				<ele>500.000000</ele>
			</trkpt>
			<trkpt lat="67.042729" lon="17.942841">
				<ele>500.000000</ele>
			</trkpt>
			<trkpt lat="67.042571" lon="17.942850">
				<ele>500.000000</ele>
			</trkpt>
			<trkpt lat="67.042431" lon="17.942913">
				<ele>500.000000</ele>
			</trkpt>
		</trkseg>
	</trk>
</gpx>

