<?xml version="1.0" encoding="utf-8"?>
<gpx xmlns="http://www.topografix.com/GPX/1/1" version="1.1" creator="https://mapy.com/">
	<trk>
		<name>Leg5: STF Aktse → Skierfe</name>
		<trkseg>
			<trkpt lat="67.148517" lon="18.305591">
				<ele>551.000000</ele>
			</trkpt>
			<trkpt lat="67.148600" lon="18.305815">
				<ele>552.000000</ele>
			</trkpt>
			<trkpt lat="67.148716" lon="18.306264">
				<ele>556.000000</ele>
			</trkpt>
			<trkpt lat="67.148771" lon="18.306354">
				<ele>558.000000</ele>
			</trkpt>
			<trkpt lat="67.148834" lon="18.306480">
				<ele>559.000000</ele>
			</trkpt>
			<trkpt lat="67.148963" lon="18.306480">
				<ele>562.000000</ele>
			</trkpt>
			<trkpt lat="67.149085" lon="18.306695">
				<ele>565.000000</ele>
			</trkpt>
			<trkpt lat="67.149201" lon="18.306811">
				<ele>568.000000</ele>
			</trkpt>
			<trkpt lat="67.149609" lon="18.307270">
				<ele>578.000000</ele>
			</trkpt>
			<trkpt lat="67.150135" lon="18.307953">
				<ele>593.000000</ele>
			</trkpt>
			<trkpt lat="67.150593" lon="18.309264">
				<ele>610.000000</ele>
			</trkpt>
			<trkpt lat="67.150777" lon="18.310117">
				<ele>620.000000</ele>
			</trkpt>
			<trkpt lat="67.150868" lon="18.311106">
				<ele>629.000000</ele>
			</trkpt>
			<trkpt lat="67.150872" lon="18.312381">
				<ele>639.000000</ele>
			</trkpt>
			<trkpt lat="67.150962" lon="18.313190">
				<ele>647.000000</ele>
			</trkpt>
			<trkpt lat="67.151130" lon="18.314314">
				<ele>659.000000</ele>
			</trkpt>
			<trkpt lat="67.151122" lon="18.315633">
				<ele>670.000000</ele>
			</trkpt>
			<trkpt lat="67.151049" lon="18.317547">
				<ele>682.000000</ele>
			</trkpt>
			<trkpt lat="67.151021" lon="18.317987">
				<ele>685.000000</ele>
			</trkpt>
			<trkpt lat="67.150994" lon="18.318427">
				<ele>688.000000</ele>
			</trkpt>
			<trkpt lat="67.151008" lon="18.318868">
				<ele>690.000000</ele>
			</trkpt>
			<trkpt lat="67.151189" lon="18.319541">
				<ele>698.000000</ele>
			</trkpt>
			<trkpt lat="67.151353" lon="18.320206">
				<ele>705.000000</ele>
			</trkpt>
			<trkpt lat="67.151454" lon="18.320853">
				<ele>712.000000</ele>
			</trkpt>
			<trkpt lat="67.151816" lon="18.321662">
				<ele>722.000000</ele>
			</trkpt>
			<trkpt lat="67.152214" lon="18.322325">
				<ele>733.000000</ele>
			</trkpt>
			<trkpt lat="67.152427" lon="18.322667">
				<ele>738.000000</ele>
			</trkpt>
			<trkpt lat="67.152717" lon="18.323071">
				<ele>745.000000</ele>
			</trkpt>
			<trkpt lat="67.152901" lon="18.323512">
				<ele>750.000000</ele>
			</trkpt>
			<trkpt lat="67.152985" lon="18.323916">
				<ele>754.000000</ele>
			</trkpt>
			<trkpt lat="67.153118" lon="18.324096">
				<ele>757.000000</ele>
			</trkpt>
			<trkpt lat="67.153310" lon="18.324375">
				<ele>761.000000</ele>
			</trkpt>
			<trkpt lat="67.153421" lon="18.324455">
				<ele>763.000000</ele>
			</trkpt>
			<trkpt lat="67.153554" lon="18.324742">
				<ele>766.000000</ele>
			</trkpt>
			<trkpt lat="67.153739" lon="18.324751">
				<ele>770.000000</ele>
			</trkpt>
			<trkpt lat="67.153874" lon="18.324904">
				<ele>772.000000</ele>
			</trkpt>
			<trkpt lat="67.154049" lon="18.323898">
				<ele>775.000000</ele>
			</trkpt>
			<trkpt lat="67.154192" lon="18.323556">
				<ele>776.000000</ele>
			</trkpt>
			<trkpt lat="67.154436" lon="18.322407">
				<ele>778.000000</ele>
			</trkpt>
			<trkpt lat="67.154562" lon="18.321598">
				<ele>780.000000</ele>
			</trkpt>
			<trkpt lat="67.154565" lon="18.321419">
				<ele>781.000000</ele>
			</trkpt>
			<trkpt lat="67.154666" lon="18.320987">
				<ele>782.000000</ele>
			</trkpt>
			<trkpt lat="67.154715" lon="18.320583">
				<ele>782.000000</ele>
			</trkpt>
			<trkpt lat="67.154823" lon="18.319990">
				<ele>784.000000</ele>
			</trkpt>
			<trkpt lat="67.155046" lon="18.318661">
				<ele>787.000000</ele>
			</trkpt>
			<trkpt lat="67.155232" lon="18.317385">
				<ele>789.000000</ele>
			</trkpt>
			<trkpt lat="67.155406" lon="18.316209">
				<ele>792.000000</ele>
			</trkpt>
			<trkpt lat="67.155500" lon="18.315553">
				<ele>793.000000</ele>
			</trkpt>
			<trkpt lat="67.155622" lon="18.314870">
				<ele>795.000000</ele>
			</trkpt>
			<trkpt lat="67.155734" lon="18.314107">
				<ele>796.000000</ele>
			</trkpt>
			<trkpt lat="67.155999" lon="18.313010">
				<ele>799.000000</ele>
			</trkpt>
			<trkpt lat="67.156176" lon="18.312507">
				<ele>800.000000</ele>
			</trkpt>
			<trkpt lat="67.156522" lon="18.312211">
				<ele>801.000000</ele>
			</trkpt>
			<trkpt lat="67.156623" lon="18.310756">
				<ele>803.000000</ele>
			</trkpt>
			<trkpt lat="67.156696" lon="18.310316">
				<ele>804.000000</ele>
			</trkpt>
			<trkpt lat="67.156926" lon="18.309723">
				<ele>805.000000</ele>
			</trkpt>
			<trkpt lat="67.157129" lon="18.308043">
				<ele>807.000000</ele>
			</trkpt>
			<trkpt lat="67.157519" lon="18.305761">
				<ele>810.000000</ele>
			</trkpt>
			<trkpt lat="67.157568" lon="18.305618">
				<ele>810.000000</ele>
			</trkpt>
			<trkpt lat="67.157794" lon="18.305618">
				<ele>810.000000</ele>
			</trkpt>
			<trkpt lat="67.157885" lon="18.304899">
				<ele>810.000000</ele>
			</trkpt>
			<trkpt lat="67.158032" lon="18.304333">
				<ele>810.000000</ele>
			</trkpt>
			<trkpt lat="67.158053" lon="18.302869">
				<ele>810.000000</ele>
			</trkpt>
			<trkpt lat="67.158119" lon="18.302356">
				<ele>810.000000</ele>
			</trkpt>
			<trkpt lat="67.158073" lon="18.301953">
				<ele>810.000000</ele>
			</trkpt>
			<trkpt lat="67.158136" lon="18.300821">
				<ele>810.000000</ele>
			</trkpt>
			<trkpt lat="67.158307" lon="18.300371">
				<ele>810.000000</ele>
			</trkpt>
			<trkpt lat="67.158422" lon="18.299383">
				<ele>810.000000</ele>
			</trkpt>
			<trkpt lat="67.158593" lon="18.298655">
				<ele>810.000000</ele>
			</trkpt>
			<trkpt lat="67.158610" lon="18.298215">
				<ele>810.000000</ele>
			</trkpt>
			<trkpt lat="67.158740" lon="18.297640">
				<ele>810.000000</ele>
			</trkpt>
			<trkpt lat="67.158753" lon="18.297290">
				<ele>810.000000</ele>
			</trkpt>
			<trkpt lat="67.159102" lon="18.296050">
				<ele>810.000000</ele>
			</trkpt>
			<trkpt lat="67.159102" lon="18.295817">
				<ele>810.000000</ele>
			</trkpt>
			<trkpt lat="67.159280" lon="18.295161">
				<ele>812.000000</ele>
			</trkpt>
			<trkpt lat="67.159360" lon="18.295053">
				<ele>812.000000</ele>
			</trkpt>
			<trkpt lat="67.159493" lon="18.294703">
				<ele>814.000000</ele>
			</trkpt>
			<trkpt lat="67.159664" lon="18.293777">
				<ele>817.000000</ele>
			</trkpt>
			<trkpt lat="67.160051" lon="18.292637">
				<ele>823.000000</ele>
			</trkpt>
			<trkpt lat="67.160225" lon="18.291990">
				<ele>827.000000</ele>
			</trkpt>
			<trkpt lat="67.160305" lon="18.291855">
				<ele>828.000000</ele>
			</trkpt>
			<trkpt lat="67.160382" lon="18.291729">
				<ele>829.000000</ele>
			</trkpt>
			<trkpt lat="67.160595" lon="18.290867">
				<ele>833.000000</ele>
			</trkpt>
			<trkpt lat="67.160678" lon="18.290642">
				<ele>834.000000</ele>
			</trkpt>
			<trkpt lat="67.160832" lon="18.289879">
				<ele>837.000000</ele>
			</trkpt>
			<trkpt lat="67.160912" lon="18.289358">
				<ele>839.000000</ele>
			</trkpt>
			<trkpt lat="67.161222" lon="18.288397">
				<ele>847.000000</ele>
			</trkpt>
			<trkpt lat="67.161578" lon="18.287202">
				<ele>854.000000</ele>
			</trkpt>
			<trkpt lat="67.161696" lon="18.286519">
				<ele>857.000000</ele>
			</trkpt>
			<trkpt lat="67.161954" lon="18.285900">
				<ele>860.000000</ele>
			</trkpt>
			<trkpt lat="67.162627" lon="18.283070">
				<ele>870.000000</ele>
			</trkpt>
			<trkpt lat="67.162934" lon="18.282072">
				<ele>877.000000</ele>
			</trkpt>
			<trkpt lat="67.162906" lon="18.281668">
				<ele>879.000000</ele>
			</trkpt>
			<trkpt lat="67.163045" lon="18.280779">
				<ele>888.000000</ele>
			</trkpt>
			<trkpt lat="67.163102" lon="18.280743">
				<ele>889.000000</ele>
			</trkpt>
			<trkpt lat="67.163147" lon="18.280636">
				<ele>890.000000</ele>
			</trkpt>
			<trkpt lat="67.163147" lon="18.280401">
				<ele>891.000000</ele>
			</trkpt>
			<trkpt lat="67.163105" lon="18.279558">
				<ele>895.000000</ele>
			</trkpt>
			<trkpt lat="67.163133" lon="18.278973">
				<ele>897.000000</ele>
			</trkpt>
			<trkpt lat="67.163172" lon="18.278883">
				<ele>898.000000</ele>
			</trkpt>
			<trkpt lat="67.163185" lon="18.278749">
				<ele>898.000000</ele>
			</trkpt>
			<trkpt lat="67.163224" lon="18.278695">
				<ele>899.000000</ele>
			</trkpt>
			<trkpt lat="67.163248" lon="18.278560">
				<ele>900.000000</ele>
			</trkpt>
			<trkpt lat="67.163294" lon="18.278497">
				<ele>900.000000</ele>
			</trkpt>
			<trkpt lat="67.163321" lon="18.278443">
				<ele>901.000000</ele>
			</trkpt>
			<trkpt lat="67.163328" lon="18.278282">
				<ele>902.000000</ele>
			</trkpt>
			<trkpt lat="67.163405" lon="18.278200">
				<ele>903.000000</ele>
			</trkpt>
			<trkpt lat="67.163446" lon="18.278066">
				<ele>904.000000</ele>
			</trkpt>
			<trkpt lat="67.163541" lon="18.277904">
				<ele>906.000000</ele>
			</trkpt>
			<trkpt lat="67.163593" lon="18.277707">
				<ele>908.000000</ele>
			</trkpt>
			<trkpt lat="67.163847" lon="18.277015">
				<ele>914.000000</ele>
			</trkpt>
			<trkpt lat="67.163921" lon="18.276728">
				<ele>916.000000</ele>
			</trkpt>
			<trkpt lat="67.163987" lon="18.276592">
				<ele>918.000000</ele>
			</trkpt>
			<trkpt lat="67.164088" lon="18.276439">
				<ele>920.000000</ele>
			</trkpt>
			<trkpt lat="67.164151" lon="18.276368">
				<ele>921.000000</ele>
			</trkpt>
			<trkpt lat="67.164130" lon="18.276126">
				<ele>922.000000</ele>
			</trkpt>
			<trkpt lat="67.164179" lon="18.275533">
				<ele>926.000000</ele>
			</trkpt>
			<trkpt lat="67.164496" lon="18.274984">
				<ele>932.000000</ele>
			</trkpt>
			<trkpt lat="67.164538" lon="18.274724">
				<ele>934.000000</ele>
			</trkpt>
			<trkpt lat="67.164653" lon="18.274428">
				<ele>937.000000</ele>
			</trkpt>
			<trkpt lat="67.164712" lon="18.274059">
				<ele>939.000000</ele>
			</trkpt>
			<trkpt lat="67.164810" lon="18.273835">
				<ele>942.000000</ele>
			</trkpt>
			<trkpt lat="67.165368" lon="18.271652">
				<ele>969.000000</ele>
			</trkpt>
			<trkpt lat="67.165521" lon="18.271428">
				<ele>973.000000</ele>
			</trkpt>
			<trkpt lat="67.165601" lon="18.269298">
				<ele>990.000000</ele>
			</trkpt>
			<trkpt lat="67.165848" lon="18.266990">
				<ele>1009.000000</ele>
			</trkpt>
			<trkpt lat="67.165953" lon="18.264690">
				<ele>1011.000000</ele>
			</trkpt>
			<trkpt lat="67.166086" lon="18.264170">
				<ele>1012.000000</ele>
			</trkpt>
			<trkpt lat="67.166225" lon="18.262965">
				<ele>1015.000000</ele>
			</trkpt>
			<trkpt lat="67.166595" lon="18.262076">
				<ele>1017.000000</ele>
			</trkpt>
			<trkpt lat="67.166664" lon="18.261744">
				<ele>1017.000000</ele>
			</trkpt>
			<trkpt lat="67.166738" lon="18.261402">
				<ele>1018.000000</ele>
			</trkpt>
			<trkpt lat="67.166915" lon="18.260891">
				<ele>1019.000000</ele>
			</trkpt>
			<trkpt lat="67.167588" lon="18.258851">
				<ele>1028.000000</ele>
			</trkpt>
			<trkpt lat="67.167654" lon="18.258428">
				<ele>1030.000000</ele>
			</trkpt>
			<trkpt lat="67.167871" lon="18.256327">
				<ele>1038.000000</ele>
			</trkpt>
			<trkpt lat="67.167993" lon="18.255428">
				<ele>1042.000000</ele>
			</trkpt>
			<trkpt lat="67.168017" lon="18.253830">
				<ele>1050.000000</ele>
			</trkpt>
			<trkpt lat="67.168048" lon="18.253560">
				<ele>1054.000000</ele>
			</trkpt>
			<trkpt lat="67.168097" lon="18.253507">
				<ele>1055.000000</ele>
			</trkpt>
			<trkpt lat="67.168104" lon="18.252778">
				<ele>1059.000000</ele>
			</trkpt>
			<trkpt lat="67.168093" lon="18.251547">
				<ele>1065.000000</ele>
			</trkpt>
			<trkpt lat="67.168062" lon="18.251260">
				<ele>1067.000000</ele>
			</trkpt>
			<trkpt lat="67.168097" lon="18.250641">
				<ele>1070.000000</ele>
			</trkpt>
			<trkpt lat="67.168250" lon="18.249966">
				<ele>1074.000000</ele>
			</trkpt>
			<trkpt lat="67.168275" lon="18.249670">
				<ele>1076.000000</ele>
			</trkpt>
			<trkpt lat="67.168334" lon="18.249518">
				<ele>1078.000000</ele>
			</trkpt>
			<trkpt lat="67.168557" lon="18.249194">
				<ele>1081.000000</ele>
			</trkpt>
			<trkpt lat="67.168665" lon="18.247775">
				<ele>1088.000000</ele>
			</trkpt>
			<trkpt lat="67.168645" lon="18.247325">
				<ele>1090.000000</ele>
			</trkpt>
			<trkpt lat="67.168787" lon="18.246985">
				<ele>1092.000000</ele>
			</trkpt>
			<trkpt lat="67.169306" lon="18.243714">
				<ele>1100.000000</ele>
			</trkpt>
			<trkpt lat="67.169568" lon="18.242098">
				<ele>1100.000000</ele>
			</trkpt>
			<trkpt lat="67.169840" lon="18.240857">
				<ele>1100.000000</ele>
			</trkpt>
			<trkpt lat="67.170021" lon="18.239645">
				<ele>1098.000000</ele>
			</trkpt>
			<trkpt lat="67.170318" lon="18.237794">
				<ele>1094.000000</ele>
			</trkpt>
			<trkpt lat="67.170450" lon="18.236815">
				<ele>1092.000000</ele>
			</trkpt>
			<trkpt lat="67.170586" lon="18.235827">
				<ele>1090.000000</ele>
			</trkpt>
			<trkpt lat="67.170673" lon="18.234920">
				<ele>1088.000000</ele>
			</trkpt>
			<trkpt lat="67.170732" lon="18.234668">
				<ele>1088.000000</ele>
			</trkpt>
			<trkpt lat="67.170774" lon="18.233698">
				<ele>1087.000000</ele>
			</trkpt>
			<trkpt lat="67.171283" lon="18.231704">
				<ele>1084.000000</ele>
			</trkpt>
			<trkpt lat="67.171621" lon="18.229863">
				<ele>1081.000000</ele>
			</trkpt>
			<trkpt lat="67.171454" lon="18.228443">
				<ele>1079.000000</ele>
			</trkpt>
			<trkpt lat="67.171732" lon="18.227140">
				<ele>1076.000000</ele>
			</trkpt>
			<trkpt lat="67.172164" lon="18.225946">
				<ele>1072.000000</ele>
			</trkpt>
			<trkpt lat="67.172398" lon="18.224922">
				<ele>1069.000000</ele>
			</trkpt>
			<trkpt lat="67.172757" lon="18.223861">
				<ele>1065.000000</ele>
			</trkpt>
			<trkpt lat="67.173176" lon="18.221095">
				<ele>1059.000000</ele>
			</trkpt>
			<trkpt lat="67.173593" lon="18.219244">
				<ele>1058.000000</ele>
			</trkpt>
			<trkpt lat="67.173395" lon="18.217196">
				<ele>1056.000000</ele>
			</trkpt>
			<trkpt lat="67.173151" lon="18.216603">
				<ele>1056.000000</ele>
			</trkpt>
			<trkpt lat="67.172750" lon="18.215013">
				<ele>1054.000000</ele>
			</trkpt>
			<trkpt lat="67.172349" lon="18.213495">
				<ele>1053.000000</ele>
			</trkpt>
			<trkpt lat="67.172133" lon="18.212956">
				<ele>1050.000000</ele>
			</trkpt>
			<trkpt lat="67.171938" lon="18.211150">
				<ele>1050.000000</ele>
			</trkpt>
			<trkpt lat="67.171691" lon="18.210988">
				<ele>1051.000000</ele>
			</trkpt>
			<trkpt lat="67.171307" lon="18.211016">
				<ele>1055.000000</ele>
			</trkpt>
			<trkpt lat="67.171081" lon="18.210774">
				<ele>1057.000000</ele>
			</trkpt>
			<trkpt lat="67.170812" lon="18.210575">
				<ele>1060.000000</ele>
			</trkpt>
			<trkpt lat="67.170662" lon="18.210118">
				<ele>1063.000000</ele>
			</trkpt>
			<trkpt lat="67.170279" lon="18.210036">
				<ele>1069.000000</ele>
			</trkpt>
			<trkpt lat="67.170147" lon="18.209856">
				<ele>1071.000000</ele>
			</trkpt>
			<trkpt lat="67.169941" lon="18.209785">
				<ele>1077.000000</ele>
			</trkpt>
			<trkpt lat="67.169833" lon="18.209848">
				<ele>1080.000000</ele>
			</trkpt>
			<trkpt lat="67.169701" lon="18.209650">
				<ele>1084.000000</ele>
			</trkpt>
			<trkpt lat="67.169414" lon="18.210135">
				<ele>1092.000000</ele>
			</trkpt>
			<trkpt lat="67.168989" lon="18.210279">
				<ele>1100.000000</ele>
			</trkpt>
			<trkpt lat="67.168445" lon="18.210414">
				<ele>1111.000000</ele>
			</trkpt>
			<trkpt lat="67.168345" lon="18.210019">
				<ele>1116.000000</ele>
			</trkpt>
			<trkpt lat="67.168293" lon="18.209498">
				<ele>1122.000000</ele>
			</trkpt>
			<trkpt lat="67.168177" lon="18.209533">
				<ele>1124.000000</ele>
			</trkpt>
			<trkpt lat="67.167912" lon="18.209416">
				<ele>1129.000000</ele>
			</trkpt>
			<trkpt lat="67.167797" lon="18.209156">
				<ele>1132.000000</ele>
			</trkpt>
			<trkpt lat="67.167557" lon="18.209156">
				<ele>1136.000000</ele>
			</trkpt>
			<trkpt lat="67.167334" lon="18.209632">
				<ele>1141.000000</ele>
			</trkpt>
			<trkpt lat="67.167212" lon="18.210099">
				<ele>1144.000000</ele>
			</trkpt>
			<trkpt lat="67.166940" lon="18.209974">
				<ele>1148.000000</ele>
			</trkpt>
			<trkpt lat="67.166522" lon="18.209255">
				<ele>1160.000000</ele>
			</trkpt>
			<trkpt lat="67.165831" lon="18.208850">
				<ele>1064.000000</ele>
			</trkpt>
		</trkseg>
	</trk>
</gpx>

