<?xml version="1.0" encoding="utf-8"?>
<gpx xmlns="http://www.topografix.com/GPX/1/1" version="1.1" creator="https://mapy.com/">
	<trk>
		<name>Leg6: Skierfe → Vindskydd Svijnne</name>
		<trkseg>
			<trkpt lat="67.165818" lon="18.208850">
				<ele>1062.000000</ele>
			</trkpt>
			<trkpt lat="67.166522" lon="18.209255">
				<ele>1160.000000</ele>
			</trkpt>
			<trkpt lat="67.166940" lon="18.209974">
				<ele>1148.000000</ele>
			</trkpt>
			<trkpt lat="67.167212" lon="18.210099">
				<ele>1144.000000</ele>
			</trkpt>
			<trkpt lat="67.167334" lon="18.209632">
				<ele>1141.000000</ele>
			</trkpt>
			<trkpt lat="67.167557" lon="18.209156">
				<ele>1136.000000</ele>
			</trkpt>
			<trkpt lat="67.167797" lon="18.209156">
				<ele>1132.000000</ele>
			</trkpt>
			<trkpt lat="67.167912" lon="18.209416">
				<ele>1129.000000</ele>
			</trkpt>
			<trkpt lat="67.168177" lon="18.209533">
				<ele>1124.000000</ele>
			</trkpt>
			<trkpt lat="67.168293" lon="18.209498">
				<ele>1122.000000</ele>
			</trkpt>
			<trkpt lat="67.168345" lon="18.210019">
				<ele>1116.000000</ele>
			</trkpt>
			<trkpt lat="67.168445" lon="18.210414">
				<ele>1111.000000</ele>
			</trkpt>
			<trkpt lat="67.168989" lon="18.210279">
				<ele>1100.000000</ele>
			</trkpt>
			<trkpt lat="67.169414" lon="18.210135">
				<ele>1092.000000</ele>
			</trkpt>
			<trkpt lat="67.169701" lon="18.209650">
				<ele>1084.000000</ele>
			</trkpt>
			<trkpt lat="67.169833" lon="18.209848">
				<ele>1080.000000</ele>
			</trkpt>
			<trkpt lat="67.169941" lon="18.209785">
				<ele>1077.000000</ele>
			</trkpt>
			<trkpt lat="67.170147" lon="18.209856">
				<ele>1071.000000</ele>
			</trkpt>
			<trkpt lat="67.170279" lon="18.210036">
				<ele>1069.000000</ele>
			</trkpt>
			<trkpt lat="67.170662" lon="18.210118">
				<ele>1063.000000</ele>
			</trkpt>
			<trkpt lat="67.170812" lon="18.210575">
				<ele>1060.000000</ele>
			</trkpt>
			<trkpt lat="67.171081" lon="18.210774">
				<ele>1057.000000</ele>
			</trkpt>
			<trkpt lat="67.171307" lon="18.211016">
				<ele>1055.000000</ele>
			</trkpt>
			<trkpt lat="67.171691" lon="18.210988">
				<ele>1051.000000</ele>
			</trkpt>
			<trkpt lat="67.171938" lon="18.211150">
				<ele>1050.000000</ele>
			</trkpt>
			<trkpt lat="67.172133" lon="18.212956">
				<ele>1050.000000</ele>
			</trkpt>
			<trkpt lat="67.172349" lon="18.213495">
				<ele>1053.000000</ele>
			</trkpt>
			<trkpt lat="67.172750" lon="18.215013">
				<ele>1054.000000</ele>
			</trkpt>
			<trkpt lat="67.173151" lon="18.216603">
				<ele>1056.000000</ele>
			</trkpt>
			<trkpt lat="67.173395" lon="18.217196">
				<ele>1056.000000</ele>
			</trkpt>
			<trkpt lat="67.173593" lon="18.219244">
				<ele>1058.000000</ele>
			</trkpt>
			<trkpt lat="67.173176" lon="18.221095">
				<ele>1059.000000</ele>
			</trkpt>
			<trkpt lat="67.172757" lon="18.223861">
				<ele>1065.000000</ele>
			</trkpt>
			<trkpt lat="67.172398" lon="18.224922">
				<ele>1069.000000</ele>
			</trkpt>
			<trkpt lat="67.172164" lon="18.225946">
				<ele>1072.000000</ele>
			</trkpt>
			<trkpt lat="67.171732" lon="18.227140">
				<ele>1076.000000</ele>
			</trkpt>
			<trkpt lat="67.171454" lon="18.228443">
				<ele>1079.000000</ele>
			</trkpt>
			<trkpt lat="67.171621" lon="18.229863">
				<ele>1081.000000</ele>
			</trkpt>
			<trkpt lat="67.171283" lon="18.231704">
				<ele>1084.000000</ele>
			</trkpt>
			<trkpt lat="67.170774" lon="18.233698">
				<ele>1087.000000</ele>
			</trkpt>
			<trkpt lat="67.170732" lon="18.234668">
				<ele>1088.000000</ele>
			</trkpt>
			<trkpt lat="67.170673" lon="18.234920">
				<ele>1088.000000</ele>
			</trkpt>
			<trkpt lat="67.170586" lon="18.235827">
				<ele>1090.000000</ele>
			</trkpt>
			<trkpt lat="67.170318" lon="18.237794">
				<ele>1094.000000</ele>
			</trkpt>
			<trkpt lat="67.170021" lon="18.239645">
				<ele>1098.000000</ele>
			</trkpt>
			<trkpt lat="67.169840" lon="18.240857">
				<ele>1100.000000</ele>
			</trkpt>
			<trkpt lat="67.169568" lon="18.242098">
				<ele>1100.000000</ele>
			</trkpt>
			<trkpt lat="67.169306" lon="18.243714">
				<ele>1100.000000</ele>
			</trkpt>
			<trkpt lat="67.168787" lon="18.246985">
				<ele>1092.000000</ele>
			</trkpt>
			<trkpt lat="67.168645" lon="18.247325">
				<ele>1090.000000</ele>
			</trkpt>
			<trkpt lat="67.168665" lon="18.247775">
				<ele>1088.000000</ele>
			</trkpt>
			<trkpt lat="67.168557" lon="18.249194">
				<ele>1081.000000</ele>
			</trkpt>
			<trkpt lat="67.168334" lon="18.249518">
				<ele>1078.000000</ele>
			</trkpt>
			<trkpt lat="67.168275" lon="18.249670">
				<ele>1076.000000</ele>
			</trkpt>
			<trkpt lat="67.168250" lon="18.249966">
				<ele>1074.000000</ele>
			</trkpt>
			<trkpt lat="67.168097" lon="18.250641">
				<ele>1070.000000</ele>
			</trkpt>
			<trkpt lat="67.168062" lon="18.251260">
				<ele>1067.000000</ele>
			</trkpt>
			<trkpt lat="67.168093" lon="18.251547">
				<ele>1065.000000</ele>
			</trkpt>
			<trkpt lat="67.168104" lon="18.252778">
				<ele>1059.000000</ele>
			</trkpt>
			<trkpt lat="67.168097" lon="18.253507">
				<ele>1055.000000</ele>
			</trkpt>
			<trkpt lat="67.168048" lon="18.253560">
				<ele>1054.000000</ele>
			</trkpt>
			<trkpt lat="67.168017" lon="18.253830">
				<ele>1050.000000</ele>
			</trkpt>
			<trkpt lat="67.167993" lon="18.255428">
				<ele>1042.000000</ele>
			</trkpt>
			<trkpt lat="67.167871" lon="18.256327">
				<ele>1038.000000</ele>
			</trkpt>
			<trkpt lat="67.167654" lon="18.258428">
				<ele>1030.000000</ele>
			</trkpt>
			<trkpt lat="67.167588" lon="18.258851">
				<ele>1028.000000</ele>
			</trkpt>
			<trkpt lat="67.166915" lon="18.260891">
				<ele>1019.000000</ele>
			</trkpt>
			<trkpt lat="67.166738" lon="18.261402">
				<ele>1018.000000</ele>
			</trkpt>
			<trkpt lat="67.166595" lon="18.262076">
				<ele>1017.000000</ele>
			</trkpt>
			<trkpt lat="67.166225" lon="18.262965">
				<ele>1015.000000</ele>
			</trkpt>
			<trkpt lat="67.166086" lon="18.264170">
				<ele>1012.000000</ele>
			</trkpt>
			<trkpt lat="67.165953" lon="18.264690">
				<ele>1011.000000</ele>
			</trkpt>
			<trkpt lat="67.165848" lon="18.266990">
				<ele>1009.000000</ele>
			</trkpt>
			<trkpt lat="67.165601" lon="18.269298">
				<ele>990.000000</ele>
			</trkpt>
			<trkpt lat="67.165521" lon="18.271428">
				<ele>973.000000</ele>
			</trkpt>
			<trkpt lat="67.165368" lon="18.271652">
				<ele>969.000000</ele>
			</trkpt>
			<trkpt lat="67.164810" lon="18.273835">
				<ele>942.000000</ele>
			</trkpt>
			<trkpt lat="67.164712" lon="18.274059">
				<ele>939.000000</ele>
			</trkpt>
			<trkpt lat="67.164653" lon="18.274428">
				<ele>937.000000</ele>
			</trkpt>
			<trkpt lat="67.164538" lon="18.274724">
				<ele>934.000000</ele>
			</trkpt>
			<trkpt lat="67.164496" lon="18.274984">
				<ele>932.000000</ele>
			</trkpt>
			<trkpt lat="67.164179" lon="18.275533">
				<ele>926.000000</ele>
			</trkpt>
			<trkpt lat="67.164130" lon="18.276126">
				<ele>922.000000</ele>
			</trkpt>
			<trkpt lat="67.164151" lon="18.276368">
				<ele>921.000000</ele>
			</trkpt>
			<trkpt lat="67.164088" lon="18.276439">
				<ele>920.000000</ele>
			</trkpt>
			<trkpt lat="67.163987" lon="18.276592">
				<ele>918.000000</ele>
			</trkpt>
			<trkpt lat="67.163921" lon="18.276728">
				<ele>916.000000</ele>
			</trkpt>
			<trkpt lat="67.163847" lon="18.277015">
				<ele>914.000000</ele>
			</trkpt>
			<trkpt lat="67.163593" lon="18.277707">
				<ele>908.000000</ele>
			</trkpt>
			<trkpt lat="67.163541" lon="18.277904">
				<ele>906.000000</ele>
			</trkpt>
			<trkpt lat="67.163446" lon="18.278066">
				<ele>904.000000</ele>
			</trkpt>
			<trkpt lat="67.163405" lon="18.278200">
				<ele>903.000000</ele>
			</trkpt>
			<trkpt lat="67.163328" lon="18.278282">
				<ele>902.000000</ele>
			</trkpt>
			<trkpt lat="67.163321" lon="18.278443">
				<ele>901.000000</ele>
			</trkpt>
			<trkpt lat="67.163294" lon="18.278497">
				<ele>900.000000</ele>
			</trkpt>
			<trkpt lat="67.163248" lon="18.278560">
				<ele>900.000000</ele>
			</trkpt>
			<trkpt lat="67.163224" lon="18.278695">
				<ele>899.000000</ele>
			</trkpt>
			<trkpt lat="67.163185" lon="18.278749">
				<ele>898.000000</ele>
			</trkpt>
			<trkpt lat="67.163172" lon="18.278883">
				<ele>898.000000</ele>
			</trkpt>
			<trkpt lat="67.163133" lon="18.278973">
				<ele>897.000000</ele>
			</trkpt>
			<trkpt lat="67.163105" lon="18.279558">
				<ele>895.000000</ele>
			</trkpt>
			<trkpt lat="67.163147" lon="18.280401">
				<ele>891.000000</ele>
			</trkpt>
			<trkpt lat="67.163147" lon="18.280636">
				<ele>890.000000</ele>
			</trkpt>
			<trkpt lat="67.163102" lon="18.280743">
				<ele>889.000000</ele>
			</trkpt>
			<trkpt lat="67.163045" lon="18.280779">
				<ele>888.000000</ele>
			</trkpt>
			<trkpt lat="67.162906" lon="18.281668">
				<ele>879.000000</ele>
			</trkpt>
			<trkpt lat="67.162934" lon="18.282072">
				<ele>877.000000</ele>
			</trkpt>
			<trkpt lat="67.162627" lon="18.283070">
				<ele>870.000000</ele>
			</trkpt>
			<trkpt lat="67.161954" lon="18.285900">
				<ele>860.000000</ele>
			</trkpt>
			<trkpt lat="67.161696" lon="18.286519">
				<ele>857.000000</ele>
			</trkpt>
			<trkpt lat="67.161578" lon="18.287202">
				<ele>854.000000</ele>
			</trkpt>
			<trkpt lat="67.161222" lon="18.288397">
				<ele>847.000000</ele>
			</trkpt>
			<trkpt lat="67.160912" lon="18.289358">
				<ele>839.000000</ele>
			</trkpt>
			<trkpt lat="67.160832" lon="18.289879">
				<ele>837.000000</ele>
			</trkpt>
			<trkpt lat="67.160678" lon="18.290642">
				<ele>834.000000</ele>
			</trkpt>
			<trkpt lat="67.160595" lon="18.290867">
				<ele>833.000000</ele>
			</trkpt>
			<trkpt lat="67.160382" lon="18.291729">
				<ele>829.000000</ele>
			</trkpt>
			<trkpt lat="67.160225" lon="18.291990">
				<ele>827.000000</ele>
			</trkpt>
			<trkpt lat="67.160051" lon="18.292637">
				<ele>823.000000</ele>
			</trkpt>
			<trkpt lat="67.159664" lon="18.293777">
				<ele>817.000000</ele>
			</trkpt>
			<trkpt lat="67.159493" lon="18.294703">
				<ele>814.000000</ele>
			</trkpt>
			<trkpt lat="67.159360" lon="18.295053">
				<ele>812.000000</ele>
			</trkpt>
			<trkpt lat="67.159280" lon="18.295161">
				<ele>812.000000</ele>
			</trkpt>
			<trkpt lat="67.159102" lon="18.295817">
				<ele>810.000000</ele>
			</trkpt>
			<trkpt lat="67.159102" lon="18.296050">
				<ele>810.000000</ele>
			</trkpt>
			<trkpt lat="67.158753" lon="18.297290">
				<ele>810.000000</ele>
			</trkpt>
			<trkpt lat="67.158740" lon="18.297640">
				<ele>810.000000</ele>
			</trkpt>
			<trkpt lat="67.158610" lon="18.298215">
				<ele>810.000000</ele>
			</trkpt>
			<trkpt lat="67.158593" lon="18.298655">
				<ele>810.000000</ele>
			</trkpt>
			<trkpt lat="67.158422" lon="18.299383">
				<ele>810.000000</ele>
			</trkpt>
			<trkpt lat="67.158307" lon="18.300371">
				<ele>810.000000</ele>
			</trkpt>
			<trkpt lat="67.158136" lon="18.300821">
				<ele>810.000000</ele>
			</trkpt>
			<trkpt lat="67.158073" lon="18.301953">
				<ele>810.000000</ele>
			</trkpt>
			<trkpt lat="67.158119" lon="18.302356">
				<ele>810.000000</ele>
			</trkpt>
			<trkpt lat="67.158053" lon="18.302869">
				<ele>810.000000</ele>
			</trkpt>
			<trkpt lat="67.158032" lon="18.304333">
				<ele>810.000000</ele>
			</trkpt>
			<trkpt lat="67.157885" lon="18.304899">
				<ele>810.000000</ele>
			</trkpt>
			<trkpt lat="67.157794" lon="18.305618">
				<ele>810.000000</ele>
			</trkpt>
			<trkpt lat="67.157568" lon="18.305618">
				<ele>810.000000</ele>
			</trkpt>
			<trkpt lat="67.157519" lon="18.305761">
				<ele>810.000000</ele>
			</trkpt>
			<trkpt lat="67.157129" lon="18.308043">
				<ele>807.000000</ele>
			</trkpt>
			<trkpt lat="67.156926" lon="18.309723">
				<ele>805.000000</ele>
			</trkpt>
			<trkpt lat="67.156696" lon="18.310316">
				<ele>804.000000</ele>
			</trkpt>
			<trkpt lat="67.156623" lon="18.310756">
				<ele>803.000000</ele>
			</trkpt>
			<trkpt lat="67.156522" lon="18.312211">
				<ele>801.000000</ele>
			</trkpt>
			<trkpt lat="67.156176" lon="18.312507">
				<ele>800.000000</ele>
			</trkpt>
			<trkpt lat="67.155999" lon="18.313010">
				<ele>799.000000</ele>
			</trkpt>
			<trkpt lat="67.155734" lon="18.314107">
				<ele>796.000000</ele>
			</trkpt>
			<trkpt lat="67.155622" lon="18.314870">
				<ele>795.000000</ele>
			</trkpt>
			<trkpt lat="67.155500" lon="18.315553">
				<ele>793.000000</ele>
			</trkpt>
			<trkpt lat="67.155406" lon="18.316209">
				<ele>792.000000</ele>
			</trkpt>
			<trkpt lat="67.155232" lon="18.317385">
				<ele>789.000000</ele>
			</trkpt>
			<trkpt lat="67.155046" lon="18.318661">
				<ele>787.000000</ele>
			</trkpt>
			<trkpt lat="67.154823" lon="18.319990">
				<ele>784.000000</ele>
			</trkpt>
			<trkpt lat="67.154715" lon="18.320583">
				<ele>782.000000</ele>
			</trkpt>
			<trkpt lat="67.154666" lon="18.320987">
				<ele>782.000000</ele>
			</trkpt>
			<trkpt lat="67.154565" lon="18.321419">
				<ele>781.000000</ele>
			</trkpt>
			<trkpt lat="67.154562" lon="18.321598">
				<ele>780.000000</ele>
			</trkpt>
			<trkpt lat="67.154436" lon="18.322407">
				<ele>778.000000</ele>
			</trkpt>
			<trkpt lat="67.154192" lon="18.323556">
				<ele>776.000000</ele>
			</trkpt>
			<trkpt lat="67.154049" lon="18.323898">
				<ele>775.000000</ele>
			</trkpt>
			<trkpt lat="67.153874" lon="18.324904">
				<ele>772.000000</ele>
			</trkpt>
			<trkpt lat="67.154091" lon="18.325138">
				<ele>776.000000</ele>
			</trkpt>
			<trkpt lat="67.154359" lon="18.325641">
				<ele>782.000000</ele>
			</trkpt>
			<trkpt lat="67.154411" lon="18.325983">
				<ele>784.000000</ele>
			</trkpt>
			<trkpt lat="67.154579" lon="18.326153">
				<ele>787.000000</ele>
			</trkpt>
			<trkpt lat="67.154666" lon="18.326377">
				<ele>789.000000</ele>
			</trkpt>
			<trkpt lat="67.154861" lon="18.326449">
				<ele>792.000000</ele>
			</trkpt>
			<trkpt lat="67.155217" lon="18.327059">
				<ele>798.000000</ele>
			</trkpt>
			<trkpt lat="67.155636" lon="18.327680">
				<ele>805.000000</ele>
			</trkpt>
			<trkpt lat="67.155887" lon="18.327824">
				<ele>808.000000</ele>
			</trkpt>
			<trkpt lat="67.156166" lon="18.328093">
				<ele>814.000000</ele>
			</trkpt>
			<trkpt lat="67.156344" lon="18.328371">
				<ele>818.000000</ele>
			</trkpt>
			<trkpt lat="67.156550" lon="18.328551">
				<ele>822.000000</ele>
			</trkpt>
			<trkpt lat="67.156951" lon="18.329252">
				<ele>831.000000</ele>
			</trkpt>
			<trkpt lat="67.157882" lon="18.330545">
				<ele>848.000000</ele>
			</trkpt>
			<trkpt lat="67.158314" lon="18.330753">
				<ele>855.000000</ele>
			</trkpt>
			<trkpt lat="67.158722" lon="18.331822">
				<ele>864.000000</ele>
			</trkpt>
			<trkpt lat="67.159040" lon="18.332567">
				<ele>870.000000</ele>
			</trkpt>
			<trkpt lat="67.159796" lon="18.333403">
				<ele>881.000000</ele>
			</trkpt>
			<trkpt lat="67.162533" lon="18.337229">
				<ele>913.000000</ele>
			</trkpt>
			<trkpt lat="67.163402" lon="18.338640">
				<ele>922.000000</ele>
			</trkpt>
			<trkpt lat="67.164256" lon="18.339583">
				<ele>928.000000</ele>
			</trkpt>
			<trkpt lat="67.165970" lon="18.341774">
				<ele>939.000000</ele>
			</trkpt>
			<trkpt lat="67.170021" lon="18.346904">
				<ele>960.000000</ele>
			</trkpt>
			<trkpt lat="67.171691" lon="18.349653">
				<ele>960.000000</ele>
			</trkpt>
			<trkpt lat="67.173311" lon="18.352689">
				<ele>957.000000</ele>
			</trkpt>
			<trkpt lat="67.175649" lon="18.356974">
				<ele>950.000000</ele>
			</trkpt>
			<trkpt lat="67.176636" lon="18.359697">
				<ele>945.000000</ele>
			</trkpt>
			<trkpt lat="67.177071" lon="18.361026">
				<ele>943.000000</ele>
			</trkpt>
			<trkpt lat="67.177649" lon="18.362167">
				<ele>940.000000</ele>
			</trkpt>
			<trkpt lat="67.179009" lon="18.363100">
				<ele>930.000000</ele>
			</trkpt>
			<trkpt lat="67.179423" lon="18.363244">
				<ele>924.000000</ele>
			</trkpt>
			<trkpt lat="67.180621" lon="18.366047">
				<ele>876.000000</ele>
			</trkpt>
			<trkpt lat="67.180918" lon="18.365634">
				<ele>865.000000</ele>
			</trkpt>
			<trkpt lat="67.181280" lon="18.367547">
				<ele>846.000000</ele>
			</trkpt>
			<trkpt lat="67.181764" lon="18.370916">
				<ele>828.000000</ele>
			</trkpt>
			<trkpt lat="67.181994" lon="18.372165">
				<ele>822.000000</ele>
			</trkpt>
			<trkpt lat="67.182360" lon="18.373207">
				<ele>812.000000</ele>
			</trkpt>
			<trkpt lat="67.183168" lon="18.375075">
				<ele>796.000000</ele>
			</trkpt>
			<trkpt lat="67.183917" lon="18.377348">
				<ele>782.000000</ele>
			</trkpt>
			<trkpt lat="67.184698" lon="18.379190">
				<ele>764.000000</ele>
			</trkpt>
			<trkpt lat="67.185101" lon="18.379962">
				<ele>758.000000</ele>
			</trkpt>
			<trkpt lat="67.185477" lon="18.380815">
				<ele>753.000000</ele>
			</trkpt>
			<trkpt lat="67.185676" lon="18.381813">
				<ele>748.000000</ele>
			</trkpt>
			<trkpt lat="67.185896" lon="18.382738">
				<ele>743.000000</ele>
			</trkpt>
			<trkpt lat="67.186530" lon="18.384319">
				<ele>733.000000</ele>
			</trkpt>
			<trkpt lat="67.187090" lon="18.386017">
				<ele>726.000000</ele>
			</trkpt>
			<trkpt lat="67.187344" lon="18.386897">
				<ele>723.000000</ele>
			</trkpt>
			<trkpt lat="67.187641" lon="18.387876">
				<ele>720.000000</ele>
			</trkpt>
			<trkpt lat="67.187947" lon="18.388729">
				<ele>715.000000</ele>
			</trkpt>
			<trkpt lat="67.188299" lon="18.389457">
				<ele>709.000000</ele>
			</trkpt>
			<trkpt lat="67.188849" lon="18.389987">
				<ele>703.000000</ele>
			</trkpt>
			<trkpt lat="67.189016" lon="18.390724">
				<ele>699.000000</ele>
			</trkpt>
			<trkpt lat="67.189058" lon="18.391281">
				<ele>697.000000</ele>
			</trkpt>
			<trkpt lat="67.189605" lon="18.392727">
				<ele>690.000000</ele>
			</trkpt>
			<trkpt lat="67.189800" lon="18.394111">
				<ele>684.000000</ele>
			</trkpt>
			<trkpt lat="67.191378" lon="18.398674">
				<ele>670.000000</ele>
			</trkpt>
			<trkpt lat="67.191457" lon="18.399248">
				<ele>669.000000</ele>
			</trkpt>
			<trkpt lat="67.191503" lon="18.399797">
				<ele>669.000000</ele>
			</trkpt>
			<trkpt lat="67.191538" lon="18.400470">
				<ele>668.000000</ele>
			</trkpt>
			<trkpt lat="67.191545" lon="18.400596">
				<ele>668.000000</ele>
			</trkpt>
			<trkpt lat="67.191576" lon="18.401000">
				<ele>668.000000</ele>
			</trkpt>
			<trkpt lat="67.191935" lon="18.402303">
				<ele>667.000000</ele>
			</trkpt>
			<trkpt lat="67.192116" lon="18.402788">
				<ele>666.000000</ele>
			</trkpt>
			<trkpt lat="67.192332" lon="18.403219">
				<ele>665.000000</ele>
			</trkpt>
			<trkpt lat="67.192826" lon="18.403669">
				<ele>664.000000</ele>
			</trkpt>
			<trkpt lat="67.193623" lon="18.404154">
				<ele>663.000000</ele>
			</trkpt>
			<trkpt lat="67.193773" lon="18.404485">
				<ele>662.000000</ele>
			</trkpt>
			<trkpt lat="67.193951" lon="18.404558">
				<ele>662.000000</ele>
			</trkpt>
			<trkpt lat="67.194278" lon="18.404747">
				<ele>661.000000</ele>
			</trkpt>
			<trkpt lat="67.194549" lon="18.404980">
				<ele>660.000000</ele>
			</trkpt>
			<trkpt lat="67.194856" lon="18.405438">
				<ele>660.000000</ele>
			</trkpt>
			<trkpt lat="67.195187" lon="18.405780">
				<ele>659.000000</ele>
			</trkpt>
			<trkpt lat="67.195274" lon="18.405816">
				<ele>659.000000</ele>
			</trkpt>
			<trkpt lat="67.195361" lon="18.405797">
				<ele>659.000000</ele>
			</trkpt>
			<trkpt lat="67.195730" lon="18.406193">
				<ele>658.000000</ele>
			</trkpt>
			<trkpt lat="67.195967" lon="18.406409">
				<ele>657.000000</ele>
			</trkpt>
			<trkpt lat="67.195994" lon="18.406535">
				<ele>657.000000</ele>
			</trkpt>
			<trkpt lat="67.196067" lon="18.406866">
				<ele>657.000000</ele>
			</trkpt>
			<trkpt lat="67.196221" lon="18.407307">
				<ele>657.000000</ele>
			</trkpt>
			<trkpt lat="67.196332" lon="18.407504">
				<ele>656.000000</ele>
			</trkpt>
			<trkpt lat="67.196426" lon="18.407487">
				<ele>656.000000</ele>
			</trkpt>
			<trkpt lat="67.197109" lon="18.408690">
				<ele>655.000000</ele>
			</trkpt>
			<trkpt lat="67.197293" lon="18.408843">
				<ele>654.000000</ele>
			</trkpt>
			<trkpt lat="67.197460" lon="18.409059">
				<ele>654.000000</ele>
			</trkpt>
			<trkpt lat="67.197951" lon="18.409661">
				<ele>653.000000</ele>
			</trkpt>
			<trkpt lat="67.198205" lon="18.410262">
				<ele>652.000000</ele>
			</trkpt>
			<trkpt lat="67.198421" lon="18.410873">
				<ele>652.000000</ele>
			</trkpt>
			<trkpt lat="67.198724" lon="18.411735">
				<ele>651.000000</ele>
			</trkpt>
			<trkpt lat="67.199100" lon="18.412490">
				<ele>650.000000</ele>
			</trkpt>
			<trkpt lat="67.199385" lon="18.413271">
				<ele>649.000000</ele>
			</trkpt>
			<trkpt lat="67.199595" lon="18.413684">
				<ele>649.000000</ele>
			</trkpt>
			<trkpt lat="67.199821" lon="18.413999">
				<ele>648.000000</ele>
			</trkpt>
			<trkpt lat="67.199963" lon="18.414385">
				<ele>648.000000</ele>
			</trkpt>
			<trkpt lat="67.200019" lon="18.414825">
				<ele>647.000000</ele>
			</trkpt>
			<trkpt lat="67.200068" lon="18.415347">
				<ele>647.000000</ele>
			</trkpt>
			<trkpt lat="67.200141" lon="18.415804">
				<ele>646.000000</ele>
			</trkpt>
			<trkpt lat="67.200284" lon="18.416227">
				<ele>646.000000</ele>
			</trkpt>
			<trkpt lat="67.200448" lon="18.416533">
				<ele>646.000000</ele>
			</trkpt>
			<trkpt lat="67.200851" lon="18.417062">
				<ele>645.000000</ele>
			</trkpt>
			<trkpt lat="67.201105" lon="18.417611">
				<ele>644.000000</ele>
			</trkpt>
			<trkpt lat="67.201526" lon="18.418563">
				<ele>643.000000</ele>
			</trkpt>
			<trkpt lat="67.202070" lon="18.419146">
				<ele>642.000000</ele>
			</trkpt>
			<trkpt lat="67.202400" lon="18.419613">
				<ele>641.000000</ele>
			</trkpt>
			<trkpt lat="67.202710" lon="18.420188">
				<ele>640.000000</ele>
			</trkpt>
			<trkpt lat="67.202988" lon="18.420691">
				<ele>640.000000</ele>
			</trkpt>
			<trkpt lat="67.203535" lon="18.421248">
				<ele>640.000000</ele>
			</trkpt>
			<trkpt lat="67.203639" lon="18.421563">
				<ele>640.000000</ele>
			</trkpt>
			<trkpt lat="67.203897" lon="18.421779">
				<ele>640.000000</ele>
			</trkpt>
			<trkpt lat="67.204036" lon="18.422083">
				<ele>640.000000</ele>
			</trkpt>
		</trkseg>
	</trk>
</gpx>

